{
  "norad_id": 63719,
  "name": "STARLINK-33727",
  "history": [
    {
      "epoch": "2026-03-28T19:57:25.174368Z",
      "apogee_km": 476.21425288703995,
      "perigee_km": 474.1918322404781,
      "latitude_deg": -1.4130882084374945e-06,
      "longitude_deg": 4.8062652734606015,
      "height_km": 475.95591132062987,
      "semi_major_axis_km": 6853.340042563758,
      "eccentricity": 0.00014755,
      "inclination_deg": 53.16,
      "raan_deg": 130.4075,
      "arg_perigee_deg": 81.7588,
      "mean_anomaly_deg": 278.358,
      "mean_motion_rev_day": 15.30204028
    }
  ]
}